     2.100          NAVIGATION                              RINEX VERSION / TYPE
fic2rin                                 04/15/2010 00:56:53 PGM / RUN BY / DATE
                                                            END OF HEADER
 3 10  4 14  8  0  0.0  .541671179235D-03  .511590769747D-11  .000000000000D+00
     .410000000000D+02 -.515937500000D+02  .567916513145D-08  .300898274604D+01
    -.278837978840D-05  .129609185969D-01  .585988163948D-05  .515369736671D+04
     .288000000000D+06  .540167093277D-07 -.104652973251D+01 -.206753611565D-06
     .926837850951D+00  .246531250000D+03  .988001655629D+00 -.840892169391D-08
    -.511807033103D-09  .100000000000D+01  .157900000000D+04  .000000000000D+00
     .340000000000D+01  .000000000000D+00 -.419095158577D-08  .410000000000D+02
     .280806000000D+06  .400000000000D+01
 5 10  4 14  8  0  0.0 -.189011916518D-05  .113686837722D-12  .000000000000D+00
     .250000000000D+02  .777187500000D+02  .469983862429D-08 -.166639341362D+01
     .403448939323D-05  .186489475891D-02  .301562249660D-05  .515368602562D+04
     .288000000000D+06 -.149011611938D-07  .116435230319D+01 -.111758708954D-07
     .958741933530D+00  .321343750000D+03  .344766099772D+00 -.839892127736D-08
     .223223583873D-09  .100000000000D+01  .157900000000D+04  .000000000000D+00
     .240000000000D+01  .000000000000D+00 -.884756445885D-08  .250000000000D+02
     .280806000000D+06  .400000000000D+01
 6 10  4 14  8  0  0.0  .666830688715D-03 -.932232069317D-11  .000000000000D+00
     .370000000000D+02 -.455625000000D+02  .554094508832D-08 -.103359947359D+01
    -.242888927460D-05  .620603072457D-02  .687316060066D-05  .515365727425D+04
     .288000000000D+06 -.726431608200D-07 -.976249095505D+00 -.428408384323D-07
     .934244078536D+00  .234656250000D+03 -.110211569826D+01 -.861107297147D-08
    -.488948938114D-09  .100000000000D+01  .157900000000D+04  .000000000000D+00
     .240000000000D+01  .000000000000D+00 -.465661287308D-08  .370000000000D+02
     .280806000000D+06  .400000000000D+01
 8 10  4 14  8  0  0.0  .484939664602D-05  .227373675443D-12  .000000000000D+00
     .180000000000D+02 -.308125000000D+02  .354371903869D-08  .866118738259D+00
    -.148452818394D-05  .109990485944D-01  .120252370834D-04  .515370266724D+04
     .288000000000D+06  .186264514923D-06 -.295123955689D+01  .178813934326D-06
     .992866784270D+00  .165656250000D+03  .309421873605D+01 -.746495380243D-08
     .316441752498D-09  .100000000000D+01  .157900000000D+04  .000000000000D+00
     .240000000000D+01  .000000000000D+00 -.419095158577D-08  .180000000000D+02
     .280806000000D+06  .400000000000D+01
 9 10  4 14  8  0  0.0  .818632543087D-06  .216004991671D-11  .000000000000D+00
     .310000000000D+02 -.303125000000D+02  .385980363346D-08  .774570783388D+00
    -.169128179550D-05  .168785779970D-01  .124536454678D-04  .515378052330D+04
     .288000000000D+06 -.230967998505D-06 -.304972220135D+01 -.987201929092D-07
     .980645869460D+00  .153375000000D+03  .150911194857D+01 -.791032949697D-08
     .219294848796D-09  .100000000000D+01  .157900000000D+04  .000000000000D+00
     .240000000000D+01  .000000000000D+00 -.558793544769D-08  .310000000000D+02
     .280806000000D+06  .400000000000D+01
10 10  4 14  8  0  0.0 -.402689911425D-04 -.909494701773D-12  .000000000000D+00
     .270000000000D+02  .710312500000D+02  .477055585566D-08 -.160707397413D+01
     .371597707272D-05  .916273635812D-02  .254064798355D-05  .515348824310D+04
     .288000000000D+06  .126659870148D-06  .119037101075D+01 -.106170773506D-06
     .953757846243D+00  .326031250000D+03  .666817226220D+00 -.839142096494D-08
     .261796619166D-09  .100000000000D+01  .157900000000D+04  .000000000000D+00
     .240000000000D+01  .000000000000D+00 -.279396772385D-08  .270000000000D+02
     .280806000000D+06  .400000000000D+01
12 10  4 14  8  0  0.0 -.126874074340D-03  .443378667114D-11  .000000000000D+00
     .107000000000D+03  .403437500000D+02  .482520098899D-08  .151795217088D+01
     .198930501938D-05  .354788103141D-02  .528991222382D-05  .515370566940D+04
     .288000000000D+06  .745058059692D-07 -.196493332969D+01  .130385160446D-07
     .969994573585D+00  .284937500000D+03 -.494386036089D+00 -.818498379457D-08
     .373586989969D-09  .100000000000D+01  .157900000000D+04  .000000000000D+00
     .340000000000D+01  .000000000000D+00 -.121071934700D-07  .107000000000D+03
     .280806000000D+06  .400000000000D+01
13 10  4 14  8  0  0.0  .305324792862D-03 -.341060513165D-12  .000000000000D+00
     .250000000000D+02 -.110250000000D+03  .381587323215D-08 -.227877060122D+01
    -.564754009247D-05  .436691707000D-02  .545568764210D-05  .515356097412D+04
     .288000000000D+06  .124797224998D-06  .228312953095D+01  .745058059692D-08
     .993051635672D+00  .290468750000D+03  .166189657607D+01 -.783175479545D-08
    -.378587198248D-09  .100000000000D+01  .157900000000D+04  .000000000000D+00
     .240000000000D+01  .000000000000D+00 -.111758708954D-07  .250000000000D+02
     .280806000000D+06  .400000000000D+01
14 10  4 14  8  0  0.0  .337213277817D-04  .454747350886D-11  .000000000000D+00
     .360000000000D+02 -.113406250000D+03  .388016162431D-08 -.246825802492D+01
    -.580959022045D-05  .496918160934D-02  .608339905739D-05  .515372907066D+04
     .288000000000D+06  .931322574615D-08  .226160283624D+01 -.353902578354D-07
     .986325318283D+00  .275562500000D+03 -.211766043525D+01 -.783996942334D-08
    -.345014371233D-09  .100000000000D+01  .157900000000D+04  .000000000000D+00
     .240000000000D+01  .000000000000D+00 -.884756445885D-08  .360000000000D+02
     .280806000000D+06  .400000000000D+01
15 10  4 14  8  0  0.0 -.286816153675D-03  .477484718431D-11  .000000000000D+00
     .107000000000D+03 -.101250000000D+03  .469840999335D-08 -.254576386364D+01
    -.518001616001D-05  .246588687878D-02  .477768480778D-05  .515374803352D+04
     .288000000000D+06 -.335276126862D-07  .219891489768D+01  .130385160446D-07
     .953927083921D+00  .286000000000D+03 -.192557012041D+00 -.834499045949D-08
    -.289297764699D-09  .100000000000D+01  .157900000000D+04  .000000000000D+00
     .340000000000D+01  .000000000000D+00 -.977888703346D-08  .107000000000D+03
     .280806000000D+06  .400000000000D+01
16 10  4 14  8  0  0.0 -.613778829575D-04 -.386535248253D-11  .000000000000D+00
     .100000000000D+02  .335937500000D+02  .475305512668D-08 -.800219804230D+00
     .160001218319D-05  .588464492466D-02  .542774796486D-05  .515373435211D+04
     .288000000000D+06  .242143869400D-07 -.194755882220D+01 -.115483999252D-06
     .971231207495D+00  .277343750000D+03 -.251695178423D+00 -.818498379457D-08
     .486091676241D-09  .100000000000D+01  .157900000000D+04  .000000000000D+00
     .240000000000D+01  .000000000000D+00 -.977888703346D-08  .100000000000D+02
     .280806000000D+06  .400000000000D+01
17 10  4 14  8  0  0.0  .144147314131D-03  .261479726760D-11  .000000000000D+00
     .630000000000D+02 -.563437500000D+02  .485234497679D-08 -.203865665766D+01
    -.280700623989D-05  .535783334635D-02  .716559588909D-05  .515358611870D+04
     .288000000000D+06  .800937414169D-07 -.904054985062D+00 -.540167093277D-07
     .960012482270D+00  .240312500000D+03 -.252610750969D+01 -.815069665209D-08
    -.491091884520D-09  .100000000000D+01  .157900000000D+04  .000000000000D+00
     .340000000000D+01  .000000000000D+00 -.102445483208D-07  .630000000000D+02
     .280806000000D+06  .400000000000D+01
19 10  4 14  8  0  0.0 -.279908999801D-04 -.261479726760D-11  .000000000000D+00
     .500000000000D+02 -.474375000000D+02  .488806075021D-08 -.264072993099D+01
    -.242888927460D-05  .635794806294D-02  .815652310848D-05  .515371722221D+04
     .288000000000D+06 -.106170773506D-06 -.848896593688D+00 -.167638063431D-07
     .957698273143D+00  .221281250000D+03 -.172906604860D+00 -.807033616189D-08
    -.596453416107D-09  .100000000000D+01  .157900000000D+04  .000000000000D+00
     .240000000000D+01  .000000000000D+00 -.149011611938D-07  .500000000000D+02
     .280806000000D+06  .400000000000D+01
20 10  4 14  8  0  0.0  .577662140131D-04 -.682121026330D-12  .000000000000D+00
     .920000000000D+02  .896562500000D+02  .530629245695D-08 -.410708050907D+00
     .464916229248D-05  .433662114665D-02  .310502946377D-05  .515363406944D+04
     .288000000000D+06 -.521540641785D-07  .113700003024D+01  .372529029846D-07
     .937635918471D+00  .306437500000D+03  .131543914404D+01 -.878536594576D-08
     .273582824394D-09  .100000000000D+01  .157900000000D+04  .000000000000D+00
     .340000000000D+01  .000000000000D+00 -.791624188423D-08  .920000000000D+02
     .280806000000D+06  .400000000000D+01
21 10  4 14  8  0  0.0 -.533568672836D-04 -.261479726760D-11  .000000000000D+00
     .540000000000D+02  .734687500000D+02  .495734935064D-08  .558456457107D+00
     .413320958614D-05  .163268225733D-01  .112056732178D-04  .515369524002D+04
     .288000000000D+06 -.875443220139D-07  .134027068480D+00  .258907675743D-06
     .933278798374D+00  .148375000000D+03 -.250110250635D+01 -.837963475971D-08
    -.238581366443D-09  .100000000000D+01  .157900000000D+04  .000000000000D+00
     .240000000000D+01  .000000000000D+00 -.121071934700D-07  .540000000000D+02
     .280806000000D+06  .400000000000D+01
22 10  4 14  8  0  0.0  .174543354660D-03 -.102318153949D-11  .000000000000D+00
     .800000000000D+02  .711562500000D+02  .531593571577D-08 -.151306467861D+01
     .363029539585D-05  .515716534574D-02  .205636024475D-05  .515365562248D+04
     .288000000000D+06  .139698386192D-06  .119596181259D+01  .614672899246D-07
     .935423322170D+00  .327843750000D+03 -.192643003243D+01 -.874536427953D-08
     .145363197818D-09  .100000000000D+01  .157900000000D+04  .000000000000D+00
     .240000000000D+01  .000000000000D+00 -.176951289177D-07  .800000000000D+02
     .280806000000D+06  .400000000000D+01
